ONEWEB-0326             
1 49195U 21083K   25274.26343447  .00000144  00000+0  33332-3 0  9990
2 49195  87.9220  26.8690 0001782  89.0317 271.1019 13.18687484195876
ONEWEB-0327             
1 49196U 21083L   25274.26316631  .00000099  00000+0  21897-3 0  9998
2 49196  87.9208  26.8940 0001662  86.7683 273.3639 13.18685425195895
ONEWEB-0328             
1 49197U 21083M   25274.29377110 -.00000186  00000+0 -54355-3 0  9995
2 49197  87.9051  11.6380 0001941 102.0123 258.1224 13.13469471196914
ONEWEB-0331             
1 49198U 21083N   25274.33258106  .00000095  00000+0  20811-3 0  9991
2 49198  87.9218  26.8476 0002022  91.5323 268.6041 13.18686488195892
ONEWEB-0333             
1 49199U 21083P   25273.83162302 -.00000149  00000+0 -44356-3 0  9990
2 49199  87.9038  11.7947 0001682 100.9502 259.1817 13.13467939196861
ONEWEB-0334             
1 49200U 21083Q   25274.20581356 -.00000019  00000+0 -79627-4 0  9995
2 49200  87.9242 326.1082 0001281 127.5451 232.5799 13.20773723202600
ONEWEB-0335             
1 49201U 21083R   25274.20743397 -.00000014  00000+0 -73473-4 0  9999
2 49201  87.9037  11.7075 0001885  95.5505 264.5839 13.13468385196920
ONEWEB-0336             
1 49202U 21083S   25274.25483130  .00000301  00000+0  78913-3 0  9991
2 49202  87.9039  11.6925 0002100  91.9633 268.1737 13.13468580196923
ONEWEB-0337             
1 49203U 21083T   25274.26486250  .00000376  00000+0  99494-3 0  9998
2 49203  87.9052  11.6967 0002031 100.2868 259.8490 13.13469256196926
ONEWEB-0338             
1 49204U 21083U   25274.10482626  .00000105  00000+0  22665-3 0  9991
2 49204  87.9246 326.1283 0001724 104.8394 255.2930 13.20770423202611
ONEWEB-0339             
1 49205U 21083V   25274.27346508  .00000362  00000+0  95627-3 0  9991
2 49205  87.9047  11.6786 0001830 105.4244 254.7088 13.13469478196903
ONEWEB-0340             
1 49206U 21083W   25274.24351348  .00000086  00000+0  18431-3 0  9998
2 49206  87.9218  26.8696 0001762  97.2083 262.9249 13.18685514195843
ONEWEB-0341             
1 49207U 21083X   25274.02247893  .00000085  00000+0  18195-3 0  9990
2 49207  87.9218  26.9264 0002277 105.1386 254.9998 13.18686036195834
ONEWEB-0342             
1 49208U 21083Y   25274.18688053  .00000061  00000+0  11835-3 0  9993
2 49208  87.9242 326.0806 0001824 100.5110 259.6229 13.20773079202597
ONEWEB-0343             
1 49209U 21083Z   25274.24596659  .00000109  00000+0  24318-3 0  9994
2 49209  87.9217  26.8670 0002108 113.9662 246.1691 13.18688397195916
ONEWEB-0344             
1 49210U 21083AA  25274.26838228  .00000382  00000+0  10103-2 0  9998
2 49210  87.9041  11.7172 0002194 102.8951 257.2424 13.13469599196909
