[{"OBJECT_NAME":"ONEWEB-0326","OBJECT_ID":"2021-083K","EPOCH":"2025-10-01T06:19:20.738208","MEAN_MOTION":13.18687484,"ECCENTRICITY":0.00017827,"INCLINATION":87.922,"RA_OF_ASC_NODE":26.869,"ARG_OF_PERICENTER":89.0317,"MEAN_ANOMALY":271.1019,"EPHEMERIS_TYPE":0,"CLASSIFICATION_TYPE":"U","NORAD_CAT_ID":49195,"ELEMENT_SET_NO":999,"REV_AT_EPOCH":19587,"BSTAR":0.0003333216,"MEAN_MOTION_DOT":1.44e-6,"MEAN_MOTION_DDOT":0},{"OBJECT_NAME":"ONEWEB-0327","OBJECT_ID":"2021-083L","EPOCH":"2025-10-01T06:18:57.569184","MEAN_MOTION":13.18685425,"ECCENTRICITY":0.00016626,"INCLINATION":87.9208,"RA_OF_ASC_NODE":26.894,"ARG_OF_PERICENTER":86.7683,"MEAN_ANOMALY":273.3639,"EPHEMERIS_TYPE":0,"CLASSIFICATION_TYPE":"U","NORAD_CAT_ID":49196,"ELEMENT_SET_NO":999,"REV_AT_EPOCH":19589,"BSTAR":0.00021896769,"MEAN_MOTION_DOT":9.9e-7,"MEAN_MOTION_DDOT":0},{"OBJECT_NAME":"ONEWEB-0328","OBJECT_ID":"2021-083M","EPOCH":"2025-10-01T07:03:01.823040","MEAN_MOTION":13.13469471,"ECCENTRICITY":0.00019412,"INCLINATION":87.9051,"RA_OF_ASC_NODE":11.638,"ARG_OF_PERICENTER":102.0123,"MEAN_ANOMALY":258.1224,"EPHEMERIS_TYPE":0,"CLASSIFICATION_TYPE":"U","NORAD_CAT_ID":49197,"ELEMENT_SET_NO":999,"REV_AT_EPOCH":19691,"BSTAR":-0.00054355491,"MEAN_MOTION_DOT":-1.86e-6,"MEAN_MOTION_DDOT":0},{"OBJECT_NAME":"ONEWEB-0331","OBJECT_ID":"2021-083N","EPOCH":"2025-10-01T07:58:55.003584","MEAN_MOTION":13.18686488,"ECCENTRICITY":0.00020226,"INCLINATION":87.9218,"RA_OF_ASC_NODE":26.8476,"ARG_OF_PERICENTER":91.5323,"MEAN_ANOMALY":268.6041,"EPHEMERIS_TYPE":0,"CLASSIFICATION_TYPE":"U","NORAD_CAT_ID":49198,"ELEMENT_SET_NO":999,"REV_AT_EPOCH":19589,"BSTAR":0.00020810784,"MEAN_MOTION_DOT":9.5e-7,"MEAN_MOTION_DDOT":0},{"OBJECT_NAME":"ONEWEB-0333","OBJECT_ID":"2021-083P","EPOCH":"2025-09-30T19:57:32.228928","MEAN_MOTION":13.13467939,"ECCENTRICITY":0.00016825,"INCLINATION":87.9038,"RA_OF_ASC_NODE":11.7947,"ARG_OF_PERICENTER":100.9502,"MEAN_ANOMALY":259.1817,"EPHEMERIS_TYPE":0,"CLASSIFICATION_TYPE":"U","NORAD_CAT_ID":49199,"ELEMENT_SET_NO":999,"REV_AT_EPOCH":19686,"BSTAR":-0.00044355796,"MEAN_MOTION_DOT":-1.49e-6,"MEAN_MOTION_DDOT":0},{"OBJECT_NAME":"ONEWEB-0334","OBJECT_ID":"2021-083Q","EPOCH":"2025-10-01T04:56:22.291584","MEAN_MOTION":13.20773723,"ECCENTRICITY":0.00012816,"INCLINATION":87.9242,"RA_OF_ASC_NODE":326.1082,"ARG_OF_PERICENTER":127.5451,"MEAN_ANOMALY":232.5799,"EPHEMERIS_TYPE":0,"CLASSIFICATION_TYPE":"U","NORAD_CAT_ID":49200,"ELEMENT_SET_NO":999,"REV_AT_EPOCH":20260,"BSTAR":-7.9626873e-5,"MEAN_MOTION_DOT":-1.9e-7,"MEAN_MOTION_DDOT":0},{"OBJECT_NAME":"ONEWEB-0335","OBJECT_ID":"2021-083R","EPOCH":"2025-10-01T04:58:42.295008","MEAN_MOTION":13.13468385,"ECCENTRICITY":0.00018854,"INCLINATION":87.9037,"RA_OF_ASC_NODE":11.7075,"ARG_OF_PERICENTER":95.5505,"MEAN_ANOMALY":264.5839,"EPHEMERIS_TYPE":0,"CLASSIFICATION_TYPE":"U","NORAD_CAT_ID":49201,"ELEMENT_SET_NO":999,"REV_AT_EPOCH":19692,"BSTAR":-7.3473112e-5,"MEAN_MOTION_DOT":-1.4e-7,"MEAN_MOTION_DDOT":0},{"OBJECT_NAME":"ONEWEB-0336","OBJECT_ID":"2021-083S","EPOCH":"2025-10-01T06:06:57.424320","MEAN_MOTION":13.1346858,"ECCENTRICITY":0.00021006,"INCLINATION":87.9039,"RA_OF_ASC_NODE":11.6925,"ARG_OF_PERICENTER":91.9633,"MEAN_ANOMALY":268.1737,"EPHEMERIS_TYPE":0,"CLASSIFICATION_TYPE":"U","NORAD_CAT_ID":49202,"ELEMENT_SET_NO":999,"REV_AT_EPOCH":19692,"BSTAR":0.00078912517,"MEAN_MOTION_DOT":3.01e-6,"MEAN_MOTION_DDOT":0},{"OBJECT_NAME":"ONEWEB-0337","OBJECT_ID":"2021-083T","EPOCH":"2025-10-01T06:21:24.120000","MEAN_MOTION":13.13469256,"ECCENTRICITY":0.00020311,"INCLINATION":87.9052,"RA_OF_ASC_NODE":11.6967,"ARG_OF_PERICENTER":100.2868,"MEAN_ANOMALY":259.849,"EPHEMERIS_TYPE":0,"CLASSIFICATION_TYPE":"U","NORAD_CAT_ID":49203,"ELEMENT_SET_NO":999,"REV_AT_EPOCH":19692,"BSTAR":0.00099493631,"MEAN_MOTION_DOT":3.76e-6,"MEAN_MOTION_DDOT":0},{"OBJECT_NAME":"ONEWEB-0338","OBJECT_ID":"2021-083U","EPOCH":"2025-10-01T02:30:56.988864","MEAN_MOTION":13.20770423,"ECCENTRICITY":0.00017246,"INCLINATION":87.9246,"RA_OF_ASC_NODE":326.1283,"ARG_OF_PERICENTER":104.8394,"MEAN_ANOMALY":255.293,"EPHEMERIS_TYPE":0,"CLASSIFICATION_TYPE":"U","NORAD_CAT_ID":49204,"ELEMENT_SET_NO":999,"REV_AT_EPOCH":20261,"BSTAR":0.00022664581,"MEAN_MOTION_DOT":1.05e-6,"MEAN_MOTION_DDOT":0},{"OBJECT_NAME":"ONEWEB-0339","OBJECT_ID":"2021-083V","EPOCH":"2025-10-01T06:33:47.382912","MEAN_MOTION":13.13469478,"ECCENTRICITY":0.00018306,"INCLINATION":87.9047,"RA_OF_ASC_NODE":11.6786,"ARG_OF_PERICENTER":105.4244,"MEAN_ANOMALY":254.7088,"EPHEMERIS_TYPE":0,"CLASSIFICATION_TYPE":"U","NORAD_CAT_ID":49205,"ELEMENT_SET_NO":999,"REV_AT_EPOCH":19690,"BSTAR":0.00095626579,"MEAN_MOTION_DOT":3.62e-6,"MEAN_MOTION_DDOT":0},{"OBJECT_NAME":"ONEWEB-0340","OBJECT_ID":"2021-083W","EPOCH":"2025-10-01T05:50:39.564672","MEAN_MOTION":13.18685514,"ECCENTRICITY":0.00017629,"INCLINATION":87.9218,"RA_OF_ASC_NODE":26.8696,"ARG_OF_PERICENTER":97.2083,"MEAN_ANOMALY":262.9249,"EPHEMERIS_TYPE":0,"CLASSIFICATION_TYPE":"U","NORAD_CAT_ID":49206,"ELEMENT_SET_NO":999,"REV_AT_EPOCH":19584,"BSTAR":0.00018430898,"MEAN_MOTION_DOT":8.6e-7,"MEAN_MOTION_DDOT":0},{"OBJECT_NAME":"ONEWEB-0341","OBJECT_ID":"2021-083X","EPOCH":"2025-10-01T00:32:22.179552","MEAN_MOTION":13.18686036,"ECCENTRICITY":0.00022777,"INCLINATION":87.9218,"RA_OF_ASC_NODE":26.9264,"ARG_OF_PERICENTER":105.1386,"MEAN_ANOMALY":254.9998,"EPHEMERIS_TYPE":0,"CLASSIFICATION_TYPE":"U","NORAD_CAT_ID":49207,"ELEMENT_SET_NO":999,"REV_AT_EPOCH":19583,"BSTAR":0.00018195133,"MEAN_MOTION_DOT":8.5e-7,"MEAN_MOTION_DDOT":0},{"OBJECT_NAME":"ONEWEB-0342","OBJECT_ID":"2021-083Y","EPOCH":"2025-10-01T04:29:06.477792","MEAN_MOTION":13.20773079,"ECCENTRICITY":0.00018245,"INCLINATION":87.9242,"RA_OF_ASC_NODE":326.0806,"ARG_OF_PERICENTER":100.511,"MEAN_ANOMALY":259.6229,"EPHEMERIS_TYPE":0,"CLASSIFICATION_TYPE":"U","NORAD_CAT_ID":49208,"ELEMENT_SET_NO":999,"REV_AT_EPOCH":20259,"BSTAR":0.00011835139,"MEAN_MOTION_DOT":6.1e-7,"MEAN_MOTION_DDOT":0},{"OBJECT_NAME":"ONEWEB-0343","OBJECT_ID":"2021-083Z","EPOCH":"2025-10-01T05:54:11.513376","MEAN_MOTION":13.18688397,"ECCENTRICITY":0.00021083,"INCLINATION":87.9217,"RA_OF_ASC_NODE":26.867,"ARG_OF_PERICENTER":113.9662,"MEAN_ANOMALY":246.1691,"EPHEMERIS_TYPE":0,"CLASSIFICATION_TYPE":"U","NORAD_CAT_ID":49209,"ELEMENT_SET_NO":999,"REV_AT_EPOCH":19591,"BSTAR":0.00024318267,"MEAN_MOTION_DOT":1.09e-6,"MEAN_MOTION_DDOT":0},{"OBJECT_NAME":"ONEWEB-0344","OBJECT_ID":"2021-083AA","EPOCH":"2025-10-01T06:26:28.228992","MEAN_MOTION":13.13469599,"ECCENTRICITY":0.0002194,"INCLINATION":87.9041,"RA_OF_ASC_NODE":11.7172,"ARG_OF_PERICENTER":102.8951,"MEAN_ANOMALY":257.2424,"EPHEMERIS_TYPE":0,"CLASSIFICATION_TYPE":"U","NORAD_CAT_ID":49210,"ELEMENT_SET_NO":999,"REV_AT_EPOCH":19690,"BSTAR":0.001010271,"MEAN_MOTION_DOT":3.82e-6,"MEAN_MOTION_DDOT":0}]
